#aV2011 12 12  0  0   .00000000      96 DD+AD WGS84 FIT  NGA
## 1666  86400.00000000   900.00000000 55907  .0000000000000
+   31     1  2  3  4  5  6  7  8  9 10 11 12 13 14 15 16 17
+         18 19 20 21 22 23 25 26 27 28 29 30 31 32  0  0  0
+          0  0  0  0  0  0  0  0  0  0  0  0  0  0  0  0  0
+          0  0  0  0  0  0  0  0  0  0  0  0  0  0  0  0  0
+          0  0  0  0  0  0  0  0  0  0  0  0  0  0  0  0  0
++         0  0  0  0  0  0  0  0  0  0  0  0  0  0  0  0  0
++         0  0  0  0  0  0  0  0  0  0  0  0  0  0  0  0  0
++         0  0  0  0  0  0  0  0  0  0  0  0  0  0  0  0  0
++         0  0  0  0  0  0  0  0  0  0  0  0  0  0  0  0  0
++         0  0  0  0  0  0  0  0  0  0  0  0  0  0  0  0  0
%c cc cc ccc ccc cccc cccc cccc cccc ccccc ccccc ccccc ccccc
%c cc cc ccc ccc cccc cccc cccc cccc ccccc ccccc ccccc ccccc
%f  0.0000000  0.000000000  0.00000000000  0.000000000000000
%f  0.0000000  0.000000000  0.00000000000  0.000000000000000
%i    0    0    0    0      0      0      0      0         0
%i    0    0    0    0      0      0      0      0         0
/*      NGA, ST. LOUIS,MO.                                  
/*   EPHEMERIS COMPUTED FROM  3 DAYS OF DATA                
/* CCCCCCCCCCCCCCCCCCCCCCCCCCCCCCCCCCCCCCCCCCCCCCCCCCCCCCCCC
/* CCCCCCCCCCCCCCCCCCCCCCCCCCCCCCCCCCCCCCCCCCCCCCCCCCCCCCCCC
*  2011 12 12 10 15   .00000000                                                 
P  1  13017.874576 -22740.412362  -4329.881728    138.414948                    
V  1   5513.691001  -2740.688279  31100.144978       .166173                    
P  2 -19744.339241   7924.698954 -15497.543329    369.844816                    
V  2   9525.106960 -17912.204615 -21679.023469       .017140                    
P  3  17018.986025   -529.922083  19993.870521    807.296114                    
V  3  12539.931714  23317.878288  -9549.329307       .052495                    
P  4 -15744.556268  -4855.117156 -21120.064180     30.870337                    
V  4  15334.955251 -21380.840974  -6258.640095       .112605                    
P  5 -24803.416907   3502.667824   8988.557199   -256.887342                    
V  5 -11022.385566  -4035.008831 -28654.055618      -.048428                    
P  6  17965.884253   4297.489976  19306.214648     14.138207                    
V  6   9508.986189  22334.749555 -13653.072564       .042451                    
P  7   1731.826885 -20626.449391  16522.519696     42.827218                    
V  7  14148.633184 -15617.208996 -21240.798148       .023937                    
P  8  -7293.326518 -13061.313757  21930.259587       .200324                    
V  8  18988.402032 -20175.491745  -6268.540933      -.000367                    
P  9 -14911.574142  21981.851357  -1291.453747    124.463882                    
V  9  -2223.781632   -418.097131  32192.453060       .026008                    
P 10 -23031.441255 -10075.695630  -9400.849120    -21.928496                    
V 10  11748.643436   -923.440811 -28124.875869      -.012156                    
P 11  12691.161473 -22677.068770   4203.001491   -212.416423                    
V 11   2763.336643   7444.173070  29603.903109      -.035283                    
P 12 -11621.555791  12260.956552 -20439.089661     40.143845                    
V 12 -25587.967739  -4552.565799  11982.552927       .022446                    
P 13  -4121.779848 -25500.919682  -6128.415339    236.689539                    
V 13   4201.941509   6618.230113 -31134.642567      -.020436                    
P 14  14916.631697  18635.288093 -11621.156252    185.402259                    
V 14   3328.848524  14685.497374  27265.645360       .016753                    
P 15  -8467.897273  15609.812770  19697.382144    -96.961834                    
V 15 -11640.882880 -22283.681360  12852.117538       .009121                    
P 16  25278.372603  -1731.282936   8473.344125   -213.531391                    
V 16  10210.585586   3486.422935 -29513.531935      -.019027                    
P 17 -14999.464502 -19691.601327  -9797.422714    160.982029                    
V 17  -2389.383462 -12571.218088  28246.268344      -.021056                    
P 18   9239.411643  15924.886112  19600.257496    171.482820                    
V 18 -24124.083346  -1890.239112  12772.021405       .018377                    
P 19  11195.225525 -12237.463177  20629.904661   -214.315795                    
V 19   9259.440606  24709.879670   9979.330952      -.039194                    
P 20  10327.138469 -14169.777927 -20090.669881     57.871466                    
V 20  25114.536421   3259.154635  10767.540880       .007348                    
P 21   3340.437703  18697.424646  18777.220759   -190.372732                    
V 21 -15695.541363  17264.673838 -15352.731657      -.024688                    
P 22  21989.641753  10893.400826  10474.723653    143.100699                    
V 22 -13385.510442   1403.912155  26982.709792      -.000087                    
P 23   2206.319899 -21723.167382 -14839.569663    251.543820                    
V 23   9369.594437  16721.978832 -23395.545022      -.033133                    
P 25     79.360786  15158.852831 -21831.756233     29.910113                    
V 25 -27503.220154  -2833.384927  -2034.849971       .006840                    
P 26 -14486.811113   1855.818744  21610.194021   -258.685979                    
V 26  -9053.155072 -27339.963367  -3250.840155      -.137925                    
P 27 -18110.035133  18008.450066   7075.182824    334.972184                    
V 27   2773.321912  -8061.100980  30786.434412       .040202                    
P 28 -19408.976678 -12645.365567  13755.447833     92.409979                    
V 28  16463.074521   1245.029482  25140.812216       .033745                    
P 29   4471.230644  25265.170339  -6879.833766    265.379787                    
V 29  -5563.597038  -7309.376789 -30143.130373       .033386                    
P 30  26365.571371   2331.549890  -2608.723888     25.394058                    
V 30  -2938.296512   2803.446633 -31462.103741      -.108551                    
P 31  16560.351318   1124.931265 -20580.095741    181.458153                    
V 31 -15639.651752  21397.501707 -11085.597979       .049872                    
P 32  18222.949889  -8442.976634 -16905.799777   -375.944646                    
V 32  21200.992912   6720.746306  19677.973327      -.058644                    
EOF
